COMMENT,ORIGINATOR,NORAD_CAT_ID,OBJECT_NAME,OBJECT_TYPE,CLASSIFICATION_TYPE,INTLDES,EPOCH,EPOCH_MICROSECONDS,MEAN_MOTION,ECCENTRICITY,INCLINATION,RA_OF_ASC_NODE,ARG_OF_PERICENTER,MEAN_ANOMALY,EPHEMERIS_TYPE,ELEMENT_SET_NO,REV_AT_EPOCH,BSTAR,MEAN_MOTION_DOT,MEAN_MOTION_DDOT,FILE,TLE_LINE0,TLE_LINE1,TLE_LINE2,OBJECT_ID,OBJECT_NUMBER,SEMIMAJOR_AXIS,PERIOD,APOGEE,PERIGEE,DECAYED,date
GENERATED VIA SPACETRACK.ORG API,18 SPCS,46300,SPACEBEE-21,PAYLOAD,U,20061AE,2023/4/10 19:11,827232,15.50826568,0.0004159,97.4049,177.1185,217.7389,142.3571,0,999,14393,0.0031406,0.0018518,0,3885333,0 SPACEBEE-21,1 46300U 20061AE  23100.79962763  .00185180  00000-0  31406-2 0  9996,2 46300  97.4049 177.1185 0004159 217.7389 142.3571 15.50826568143933,2020-061AE,46300,6792.448,92.854,417.138,411.488,1,
GENERATED VIA SPACETRACK.ORG API,18 SPCS,46300,SPACEBEE-21,PAYLOAD,U,20061AE,2023/4/10 19:11,827232,15.50826568,0.0004159,97.4049,177.1185,217.7389,142.3571,0,999,14393,0.0031406,0.0018518,0,3885363,0 SPACEBEE-21,1 46300U 20061AE  23100.79962763  .00185180  00000-0  31406-2 0  9996,2 46300  97.4049 177.1185 0004159 217.7389 142.3571 15.50826568143933,2020-061AE,46300,6792.448,92.854,417.138,411.488,1,
GENERATED VIA SPACETRACK.ORG API,18 SPCS,46300,SPACEBEE-21,PAYLOAD,U,20061AE,2023/4/11 4:28,587072,15.50960164,0.0004217,97.4048,177.5167,216.974,143.1222,0,999,14399,0.0026006,0.00153433,0,3885749,0 SPACEBEE-21,1 46300U 20061AE  23101.18675448  .00153433  00000-0  26006-2 0  9997,2 46300  97.4048 177.5167 0004217 216.9740 143.1222 15.50960164143992,2020-061AE,46300,6792.058,92.846,416.788,411.059,1,
GENERATED VIA SPACETRACK.ORG API,18 SPCS,46300,SPACEBEE-21,PAYLOAD,U,20061AE,2023/4/11 4:28,587072,15.50960164,0.0004217,97.4048,177.5167,216.974,143.1222,0,999,14399,0.0026006,0.00153433,0,3885783,0 SPACEBEE-21,1 46300U 20061AE  23101.18675448  .00153433  00000-0  26006-2 0  9997,2 46300  97.4048 177.5167 0004217 216.9740 143.1222 15.50960164143992,2020-061AE,46300,6792.058,92.846,416.788,411.059,1,
GENERATED VIA SPACETRACK.ORG API,18 SPCS,46300,SPACEBEE-21,PAYLOAD,U,20061AE,2023/4/11 15:19,366208,15.51121399,0.0004153,97.4047,177.9821,218.9492,141.1461,0,999,14406,0.0029781,0.00177257,0,3885919,0 SPACEBEE-21,1 46300U 20061AE  23101.63836072  .00177257  00000-0  29781-2 0  9992,2 46300  97.4047 177.9821 0004153 218.9492 141.1461 15.51121399144069,2020-061AE,46300,6791.588,92.836,416.273,410.632,1,
GENERATED VIA SPACETRACK.ORG API,18 SPCS,46300,SPACEBEE-21,PAYLOAD,U,20061AE,2023/4/12 3:42,275072,15.51304557,0.0004141,97.4047,178.5137,218.1143,141.9816,0,999,14414,0.0028034,0.00167737,0,3886349,0 SPACEBEE-21,1 46300U 20061AE  23102.15442448  .00167737  00000-0  28034-2 0  9992,2 46300  97.4047 178.5137 0004141 218.1143 141.9816 15.51304557144148,2020-061AE,46300,6791.053,92.825,415.73,410.106,1,
GENERATED VIA SPACETRACK.ORG API,18 SPCS,46300,SPACEBEE-21,PAYLOAD,U,20061AE,2023/4/13 4:28,813824,15.51667619,0.000427,97.4046,179.5758,216.265,143.8313,0,999,14430,0.0030073,0.00182626,0,3886564,0 SPACEBEE-21,1 46300U 20061AE  23103.18637516  .00182626  00000-0  30073-2 0  9998,2 46300  97.4046 179.5758 0004270 216.2650 143.8313 15.51667619144304,2020-061AE,46300,6789.994,92.803,414.758,408.959,1,
GENERATED VIA SPACETRACK.ORG API,18 SPCS,46300,SPACEBEE-21,PAYLOAD,U,20061AE,2023/4/14 3:41,33088,15.52043545,0.0004282,97.4047,180.5726,216.8254,143.2705,0,999,14445,0.0034285,0.00211803,0,3887333,0 SPACEBEE-21,1 46300U 20061AE  23104.15359992  .00211803  00000-0  34285-2 0  9994,2 46300  97.4047 180.5726 0004282 216.8254 143.2705 15.52043545144453,2020-061AE,46300,6788.897,92.781,413.669,407.855,1,
GENERATED VIA SPACETRACK.ORG API,18 SPCS,46300,SPACEBEE-21,PAYLOAD,U,20061AE,2023/4/14 16:03,586496,15.52230924,0.0004233,97.4044,181.1042,216.3374,143.7592,0,999,14453,0.0031445,0.00195141,0,3887361,0 SPACEBEE-21,1 46300U 20061AE  23104.66935864  .00195141  00000-0  31445-2 0  9999,2 46300  97.4044 181.1042 0004233 216.3374 143.7592 15.52230924144539,2020-061AE,46300,6788.351,92.77,413.089,407.342,1,
GENERATED VIA SPACETRACK.ORG API,18 SPCS,46300,SPACEBEE-21,PAYLOAD,U,20061AE,2023/4/14 19:09,952736,15.52301797,0.0004222,97.4042,181.237,216.6622,143.4342,0,999,14455,0.0036614,0.00228779,0,3887562,0 SPACEBEE-21,1 46300U 20061AE  23104.79828649  .00228779  00000-0  36614-2 0  9992,2 46300  97.4042 181.2370 0004222 216.6622 143.4342 15.52301797144558,2020-061AE,46300,6788.144,92.765,412.875,407.143,1,
GENERATED VIA SPACETRACK.ORG API,18 SPCS,46300,SPACEBEE-21,PAYLOAD,U,20061AE,2023/4/15 12:10,298880,15.52608824,0.0004281,97.4047,181.9683,219.5431,140.551,0,999,14466,0.0035622,0.00224927,0,3887974,0 SPACEBEE-21,1 46300U 20061AE  23105.50730670  .00224927  00000-0  35622-2 0  9997,2 46300  97.4047 181.9683 0004281 219.5431 140.5510 15.52608824144660,2020-061AE,46300,6787.249,92.747,412.02,406.209,1,
GENERATED VIA SPACETRACK.ORG API,18 SPCS,46300,SPACEBEE-21,PAYLOAD,U,20061AE,2023/4/15 18:21,307360,15.52731678,0.0004297,97.4047,182.2341,219.7113,140.3825,0,999,14470,0.003646,0.00231426,0,3888171,0 SPACEBEE-21,1 46300U 20061AE  23105.76509615  .00231426  00000-0  36460-2 0  9991,2 46300  97.4047 182.2341 0004297 219.7113 140.3825 15.52731678144707,2020-061AE,46300,6786.891,92.74,411.673,405.84,1,
GENERATED VIA SPACETRACK.ORG API,18 SPCS,46300,SPACEBEE-21,PAYLOAD,U,20061AE,2023/4/16 6:44,980480,15.52975912,0.0004237,97.4045,182.7659,219.0933,141.0015,0,999,14478,0.0034045,0.0021761,0,3888626,0 SPACEBEE-21,1 46300U 20061AE  23106.28061320  .00217610  00000-0  34045-2 0  9991,2 46300  97.4045 182.7659 0004237 219.0933 141.0015 15.52975912144787,2020-061AE,46300,6786.18,92.725,410.92,405.169,1,
GENERATED VIA SPACETRACK.ORG API,18 SPCS,46300,SPACEBEE-21,PAYLOAD,U,20061AE,2023/4/16 19:06,994752,15.53211699,0.0004164,97.404,183.2974,218.6186,141.477,0,999,14486,0.003541,0.00228578,0,3888799,0 SPACEBEE-21,1 46300U 20061AE  23106.79605318  .00228578  00000-0  35410-2 0  9990,2 46300  97.4040 183.2974 0004164 218.6186 141.4770 15.53211699144869,2020-061AE,46300,6785.493,92.711,410.183,404.533,1,
GENERATED VIA SPACETRACK.ORG API,18 SPCS,46300,SPACEBEE-21,PAYLOAD,U,20061AE,2023/4/17 4:22,969024,15.53395771,0.0004156,97.4039,183.6964,219.3233,140.7718,0,999,14492,0.0036561,0.00237857,0,3888966,0 SPACEBEE-21,1 46300U 20061AE  23107.18258066  .00237857  00000-0  36561-2 0  9996,2 46300  97.4039 183.6964 0004156 219.3233 140.7718 15.53395771144927,2020-061AE,46300,6784.957,92.7,409.642,404.002,1,
GENERATED VIA SPACETRACK.ORG API,18 SPCS,46300,SPACEBEE-21,PAYLOAD,U,20061AE,2023/4/17 10:33,780928,15.53511142,0.0004287,97.4037,183.9625,219.0608,141.0336,0,999,14496,0.0036395,0.00237763,0,3889215,0 SPACEBEE-21,1 46300U 20061AE  23107.44024052  .00237763  00000-0  36395-2 0  9992,2 46300  97.4037 183.9625 0004287 219.0608 141.0336 15.53511142144966,2020-061AE,46300,6784.621,92.693,409.395,403.577,1,
GENERATED VIA SPACETRACK.ORG API,18 SPCS,46300,SPACEBEE-21,PAYLOAD,U,20061AE,2023/4/17 18:17,742816,15.53666352,0.0004269,97.4038,184.2952,219.9366,140.1574,0,999,14501,0.0038363,0.00252499,0,3889391,0 SPACEBEE-21,1 46300U 20061AE  23107.76228869  .00252499  00000-0  38363-2 0  9999,2 46300  97.4038 184.2952 0004269 219.9366 140.1574 15.53666352145019,2020-061AE,46300,6784.169,92.684,408.93,403.138,1,
GENERATED VIA SPACETRACK.ORG API,18 SPCS,46300,SPACEBEE-21,PAYLOAD,U,20061AE,2023/4/18 6:39,892864,15.53901158,0.0004244,97.4041,184.8275,219.707,140.3873,0,999,14509,0.0032453,0.00214372,0,3889624,0 SPACEBEE-21,1 46300U 20061AE  23108.27749876  .00214372  00000-0  32453-2 0  9994,2 46300  97.4041 184.8275 0004244 219.7070 140.3873 15.53901158145098,2020-061AE,46300,6783.486,92.67,408.23,402.472,1,
GENERATED VIA SPACETRACK.ORG API,18 SPCS,46300,SPACEBEE-21,PAYLOAD,U,20061AE,2023/4/18 6:39,892864,15.53901158,0.0004244,97.4041,184.8275,219.707,140.3873,0,999,14509,0.0032453,0.00214372,0,3889684,0 SPACEBEE-21,1 46300U 20061AE  23108.27749876  .00214372  00000-0  32453-2 0  9994,2 46300  97.4041 184.8275 0004244 219.7070 140.3873 15.53901158145098,2020-061AE,46300,6783.486,92.67,408.23,402.472,1,
GENERATED VIA SPACETRACK.ORG API,18 SPCS,46300,SPACEBEE-21,PAYLOAD,U,20061AE,2023/4/18 19:01,707200,15.54139734,0.0004225,97.4036,185.3599,220.0873,140.0069,0,999,14517,0.0040999,0.00275298,0,3889987,0 SPACEBEE-21,1 46300U 20061AE  23108.79263550  .00275298  00000-0  40999-2 0  9999,2 46300  97.4036 185.3599 0004225 220.0873 140.0069 15.54139734145179,2020-061AE,46300,6782.791,92.656,407.522,401.791,1,
GENERATED VIA SPACETRACK.ORG API,18 SPCS,46300,SPACEBEE-21,PAYLOAD,U,20061AE,2023/4/19 5:50,270848,15.54343245,0.0004294,97.4034,185.826,220.6853,139.408,0,999,14524,0.0034233,0.00230244,0,3890383,0 SPACEBEE-21,1 46300U 20061AE  23109.24331332  .00230244  00000-0  34233-2 0  9990,2 46300  97.4034 185.8260 0004294 220.6853 139.4080 15.54343245145244,2020-061AE,46300,6782.199,92.644,406.977,401.152,1,
GENERATED VIA SPACETRACK.ORG API,18 SPCS,46300,SPACEBEE-21,PAYLOAD,U,20061AE,2023/4/19 18:11,160608,15.54595375,0.0004332,97.4031,186.3583,219.7843,140.3094,0,999,14532,0.0040569,0.00277009,0,3890520,0 SPACEBEE-21,1 46300U 20061AE  23109.75830047  .00277009  00000-0  40569-2 0  9992,2 46300  97.4031 186.3583 0004332 219.7843 140.3094 15.54595375145324,2020-061AE,46300,6781.466,92.629,406.269,400.393,1,
GENERATED VIA SPACETRACK.ORG API,18 SPCS,46300,SPACEBEE-21,PAYLOAD,U,20061AE,2023/4/20 3:28,567936,15.54779865,0.0004354,97.4032,186.7575,219.5035,140.5902,0,999,14538,0.0037281,0.00255574,0,3890762,0 SPACEBEE-21,1 46300U 20061AE  23110.14448574  .00255574  00000-0  37281-2 0  9997,2 46300  97.4032 186.7575 0004354 219.5035 140.5902 15.54779865145389,2020-061AE,46300,6780.93,92.618,405.747,399.842,1,
